city,country,zip,state

Phalaborwa,"South Africa",1395,Limpopo
Lüsslingen,Switzerland,4574,
Alegrete,Brazil,97546-085,"Rio Grande do Sul"
Greenmeadows,"New Zealand",4112,Napier
Lublin,Poland,20-537,
Tatuí,Brazil,18273-610,"São Paulo"
"Santa Lucía del Este",Uruguay,16306,Canelones
"NARINGAL EAST",Australia,3277,Victoria
TAMPERE,Finland,33240,Pirkanmaa
Bergholz-Rehbrücke,Germany,14558,Brandenburg
"WAGGA WAGGA NORTH",Australia,2650,"New South Wales"
SAWLEY,"United Kingdom","BB7 6WJ",
"Cite Populaire",Tunisia,9110,"Governorate Sidi Bouzid"
Rotterdam,Netherlands,"3079 GS",Zuid-Holland
TRENEGLOS,"United Kingdom","PL15 2GT",
Gehrden,Germany,30989,Niedersachsen
"AU BEI BRANDSTATT",Austria,4070,"Upper Austria"
Muggiano,Italy,19139,"La Spezia"
IKAALINEN,Finland,39500,Pirkanmaa
Ettiayra,Tunisia,2090,"Governorate Ben Arous"
Peterborough,Canada,"K9H 2L1",Ontario
Supsi,Estonia,71205,Viljandimaa
"Volta Redonda",Brazil,27283-030,"Rio de Janeiro"
FALKENDORF,Austria,8862,Styria
"Port Taranaki","New Zealand",4310,"New Plymouth"
NIEMTAL,Austria,2564,"Lower Austria"
BALLINLUIG,"United Kingdom","PH9 0ZX",
MONTLUÇON,France,03100,Auvergne
Szczecin,Poland,70-634,
DILKOON,Australia,2460,"New South Wales"
"Te Awa","New Zealand",4110,Napier
UMEÅ,Sweden,"903 86",
Ferjen,Tunisia,9150,"Governorate Sidi Bouzid"
Ordingen,Belgium,3800,Limburg
Ljubljana,Slovenia,1510,
ΚΙΑ∆ΟΣ,"Cyprus (Greek)",5654,Αμμόχωστος
"São Vicente",Brazil,11365-665,"São Paulo"
"BUSHY PARK",Australia,3860,Victoria
JUMP,"United Kingdom","S74 3JX",
Fairbanks,"United States",99701,Alaska
Alpedrinha,Portugal,6230-077,"Castelo Branco"
"Breña Alta",Spain,38710,"Santa Cruz de Tenerife"
KARSTULA,Finland,43500,"Central Finland"
"ΜΟΝΗ ΑΓΙΑΣ ΠΑΝΤΕΛΕΗΜΟΝΟΣ ΑΧΑΙΡΑ","Cyprus (Greek)",2624,Λευκωσία
"Treis Elies","Cyprus (Anglicized)",4846,Limassol
HÄMEENLINNA,Finland,13300,"Tavastia Proper"
s-Heer-Hendrikskinderen,Netherlands,"4472 AV",Zeeland
"Nové Strašecí","Czech Republic","271 01","Stredoceský kraj"
"Frederiksberg C",Denmark,1807,"Region Sjælland"
Höfn,Iceland,781,
"København K",Denmark,1055,"Region Sjælland"
"Alphen aan den Rijn",Netherlands,"2404 EW",Zuid-Holland
"Bab Menara",Tunisia,1008,"Governorate Tunis"
Upernavik,Greenland,3962,Qaasuitsup
JESSHEIM,Norway,2052,
Neuburg,Germany,86474,"Freistaat Bayern"
Toronto,Canada,"M2J 3T7",Ontario
Kirchbözberg,Switzerland,5224,
Hadsten,Denmark,8370,"Region Midtjylland"
AJANA,Australia,6532,"Western Australia"
"COOLUM BEACH",Australia,4573,Queensland
KULLAVIK,Sweden,"430 41",
"Western Heights","New Zealand",3200,Hamilton
Greenville,"United States",27834,"North Carolina"
Narsaq,Greenland,3921,Kujalleq
POPHAM,"United Kingdom","SO21 6HU",
JOLIMONT,Australia,6014,"Western Australia"
Tilbury,Canada,"N0P 2L0",Ontario
"Wanganui East","New Zealand",4500,Wanganui
Paralimni,"Cyprus (Anglicized)",5290,Famagusta
Kalograia,"Cyprus (Anglicized)",9571,Kyrenia
"København V",Denmark,1775,"Region Sjælland"
London,Canada,"N0N 0N0",Ontario
BEXLEY,Australia,2207,"New South Wales"
Niederstocken,Switzerland,3632,
Žalec,Slovenia,3310,
"Station Nord",Greenland,3972,Qaasuitsup
Metuchen,"United States",08840,"New Jersey"
Budapest,Hungary,1068,Budapest
Splügen,Switzerland,7435,
BEKKESTUA,Norway,1356,
OSKAR-FREDRIKSBORG,Sweden,"185 02",
EGGENBERG,Austria,4880,"Upper Austria"
Cardal,Uruguay,94007,Florida
"Borj Messaoudi",Tunisia,6125,"Governorate Siliana"
BLENTARP,Sweden,"270 35",
Fresno,"United States",93721,California
"Cassano D'Adda",Italy,20062,Milano
NADELBACH,Austria,3100,"Lower Austria"
VAASA,Finland,65007,Ostrobothnia
München,Germany,80525,"Freistaat Bayern"
"Seaward Bush","New Zealand",9812,Invercargill
Brzeg,Poland,49-306,
TRONDHEIM,Norway,7042,
Monção,Portugal,4950-436,"Viana do Castelo"
Castejón,Spain,31590,Navarre
AUCHNAGATT,"United Kingdom","AB41 4JX",
"Ribeirão das Neves",Brazil,33860-510,"Minas Gerais"
"Rokytnice nad Rokytnou","Czech Republic","675 25","Kraj Vysocina"
HINTERLEITEN,Austria,3263,"Lower Austria"
KEMINMAA,Finland,94400,Lapland
Caçapava,Brazil,12286-710,"São Paulo"
Gdańsk,Poland,80-391,
"Bistrica ob Sotli",Slovenia,3256,
"Salah El Bahri",Tunisia,7100,"Governorate Kef"
"Mešice u Prahy","Czech Republic","250 64","Stredoceský kraj"
Cariacica,Brazil,29142-379,"Espírito Santo"
Salina,"United States",67401,Kansas
Riachuelo,Uruguay,70000,Canelones
Leeuwarden,Netherlands,"8915 EV",Friesland
Nikokleia,"Cyprus (Anglicized)",8505,Paphos
ΚΟΡΝΟΣ,"Cyprus (Greek)",7640,Λάρνακα
Katowice,Poland,40-602,
"København V",Denmark,1612,"Region Sjælland"
Staufen,Switzerland,5603,
Woubrugge,Netherlands,"2481 CG",Zuid-Holland
Artajona,Spain,31140,Navarre
Vendersheim,Germany,55578,Rheinland-Pfalz
Wellen,Belgium,3830,Limburg
KOPPOM,Sweden,"670 41",
FINNERÖDJA,Sweden,"690 30",
"Cite Marseille",Tunisia,2021,"Governorate Manouba"
Vacallo,Switzerland,6833,
TINTINARA,Australia,5266,"South Australia"
Kisovec,Slovenia,1412,
"Praha 415","Czech Republic","149 00","Stredoceský kraj"
Oirschot,Netherlands,"5688 TL",Noord-Brabant
Lehetu,Estonia,76204,Harjumaa
SIDENSJÖ,Sweden,"890 11",
"San Nicola Di Caulonia",Italy,89040,"Reggio Calabria"
Paamiut,Greenland,3940,Sermersooq
Pituffik,Greenland,3970,Qaasuitsup
Amor,Portugal,2400-782,Leiria
BODØ,Norway,8023,
GRUND,Austria,2042,"Lower Austria"
Uetliburg,Switzerland,8738,
"La Motte","United States",52054,Iowa
Tamel,Portugal,4750-749,Braga
Spencer,"United States",68777,"South Dakota"
"København V",Denmark,1658,"Region Sjælland"
Litomyšl,"Czech Republic","570 01","Pardubický kraj"
"O Carballiño",Spain,32500,Ourense
Bancroft,Canada,"K0L 1C0",Ontario
Smlednik,Slovenia,1216,
Drouseia,"Cyprus (Anglicized)",8700,Paphos
SUNNE,Sweden,"686 00",
Eiðar,Iceland,705,
GLENFINNAN,"United Kingdom","PH37 4FP",
"Santana de Parnaíba",Brazil,06539-065,"São Paulo"
Tarnaörs,Hungary,3294,Heves
FOUGÈRES,France,35300,Bretagne
"ΑΡΟ∆ΕΣ ΠΑΝΩ","Cyprus (Greek)",8703,Πάφος
"Teplice 1","Czech Republic","415 01","Ústecký kraj"
MAISONS-LAFFITTE,France,78600,Île-de-France
NAANTALI,Finland,21100,Varsinais-Suomi
"El Segundo","United States",90245,California
Hof,Germany,95005,"Freistaat Bayern"
Kétsoprony,Hungary,5674,Békés
Magyarföld,Hungary,8973,Zala
Lakatameia,"Cyprus (Anglicized)",2300,Nicosia
"Paso Campamento",Uruguay,55008,Artigas
"Cabra Figa",Portugal,2635-128,Lisboa
"ST LEONARDS","United Kingdom","HP23 0YP",
"Šmartno pri Slovenj Gradcu",Slovenia,2383,
Genève,Switzerland,1201,
VALKEAKOSKI,Finland,37630,Pirkanmaa
"SOUTH BURNIE",Australia,7320,Tasmania
Basel,Switzerland,4091,
SANDNES,Norway,4313,
TRONDHEIM,Norway,7042,
TØNSBERG,Norway,3118,
Lelów,Poland,42-235,
Toronto,Canada,"M1H 1A8",Ontario
YARNFIELD,"United Kingdom","ST15 2ZW",
Glenholme,"New Zealand",3010,Rotorua
Warszawa,Poland,01-612,
Indwe,"South Africa",5445,"Eastern Cape"
Dobravlje,Slovenia,5263,
Utrecht,Netherlands,"3562 BE",Utrecht
ΚΑΡΑΜΟΥΛΛΗ∆ΕΣ,"Cyprus (Greek)",8851,Πάφος
BIMBI,Australia,2810,"New South Wales"
Amsterdam,Netherlands,"1057 DW",Noord-Holland
KOTKA,Finland,48130,Kymenlaakso
Murtal,Portugal,2775-128,Lisboa
"København K",Denmark,1265,"Region Sjælland"
Montreal,Canada,"H3C 5K4",Quebec
Qumbu,"South Africa",5189,"Eastern Cape"
Gilleleje,Denmark,3250,"Region Sjælland"
"Amirat Hatem",Tunisia,5062,"Governorate Monastir"
BICKLEIGH,"United Kingdom","PL6 6BJ",
TROMSØ,Norway,9017,
UGBOROUGH,"United Kingdom","PL21 8ZA",
VISHULT,Sweden,"290 62",
"BARTON HARTSHORN","United Kingdom","MK18 7FR",
"Ala Di Stura",Italy,10070,Torino
Lemmetsa,Estonia,88311,Pärnumaa
Tinnye,Hungary,2086,Pest
Larnaka,"Cyprus (Anglicized)",6307,Larnaca
SAINT-MALO,France,35400,Bretagne
"Koblenz Vorstadt",Germany,56068,Rheinland-Pfalz
Kaapstad,"South Africa",8008,"Western Cape"
Coquitlam,Canada,"V3J 4S1","British Columbia"
OSLO,Norway,1295,
VALKEAKOSKI,Finland,37620,Pirkanmaa
Slavonice,"Czech Republic","378 81","Jihoceský kraj"
Koszalin,Poland,75-235,
"Little Rock","United States",72201,Arkansas
"São Paulo",Brazil,04372-070,"São Paulo"
Vače,Slovenia,1252,
Mezôd,Hungary,7370,Baranya
STAVANGER,Norway,4013,
Laval,Canada,"H7W 1A9",Quebec
Salmistu,Estonia,74629,Harjumaa
"Port Elizabeth","South Africa",6005,"Eastern Cape"
LUDVIKA,Sweden,"771 89",
Schore,Belgium,8433,"West Flanders"
Prath,Germany,56346,Rheinland-Pfalz
Wied,Germany,57629,Rheinland-Pfalz
BODØ,Norway,8027,
Põlva,Estonia,63309,Põlvamaa
Spijkenisse,Netherlands,"3205 EH",Zuid-Holland
"Kampi Farmaka","Cyprus (Anglicized)",2619,Nicosia
Rellingen,Germany,25455,Schleswig-Holstein
Villalfonsina,Italy,66020,Chieti
Burnaby,Canada,"V5B 3C9","British Columbia"
PORVOO,Finland,06450,Uusimaa
"Loka pri Žusmu",Slovenia,3223,
Maulbronn,Germany,75433,Baden-Württemberg
HAFSLUNDSØY,Norway,1734,
Prescott,"United States",86301,Arizona
Ceutí,Spain,30562,Murcia
Tapiku,Estonia,48218,Jõgevamaa
"København K",Denmark,1158,"Region Sjælland"
Nuussuaq,Greenland,3905,Qaasuitsup
SARPSBORG,Norway,1725,
Valthermond,Netherlands,"7876 BA",Drenthe
Providence,"United States",02905,"Rhode Island"
SWANSCOMBE,"United Kingdom","DA11 1FG",
Lenešice,"Czech Republic","439 23","Ústecký kraj"
Božanov,"Czech Republic","549 74","Královéhradecký kraj"
"RAMSGATE BEACH",Australia,2217,"New South Wales"
"Almodóvar del Río",Spain,14720,Córdoba
Niederöfflingen,Germany,54533,Rheinland-Pfalz
"Düsseldorf Wittlaer",Germany,40489,Nordrhein-Westfalen
Vikýrovice,"Czech Republic","788 13","Olomoucký kraj"
"La Coronilla",Uruguay,27201,Rocha
"CACKLE STREET","United Kingdom","TN31 8LS",
Ciechanów,Poland,06-402,
"Cite Ettahrir",Tunisia,6120,"Governorate Siliana"
Onga,Hungary,3562,Borsod-Abaúj-Zemplén
"Náchod 1","Czech Republic","547 01","Královéhradecký kraj"
Pelotas,Brazil,96080-610,"Rio Grande do Sul"
Cuaró,Uruguay,55003,Artigas
"Zgornja Ložnica",Slovenia,2316,
Poike,"New Zealand",3112,Tauranga
WERDA,Austria,9131,Carinthia
Decatur,"United States",62522,Illinois
PORI,Finland,28360,Satakunta
Korbeek-Dijle,Belgium,3060,"Flemish Brabant"
HAILUOTO,Finland,90480,"Northern Ostrobothnia"
Mosfellsbær,Iceland,270,
"Rousínov u Vyškova","Czech Republic","683 01","Jihomoravský kraj"
"Fenais da Ajuda",Portugal,9625-022,"Ilha de São Miguel"
"San Salvo",Italy,66050,Chieti
"Cape Town","South Africa",8018,"Western Cape"
Thierhaupten,Germany,86672,"Freistaat Bayern"
MIKKELI,Finland,50160,"Southern Savonia"
"Ústí nad Orlicí 1","Czech Republic","562 01","Pardubický kraj"
Wannegem-Lede,Belgium,9772,"East Flanders"
Schierling,Germany,84067,"Freistaat Bayern"
Lympia,"Cyprus (Anglicized)",2566,Nicosia
Gonville,"New Zealand",4501,Wanganui
SCHANDACHEN,Austria,3874,"Lower Austria"
ASKIM,Norway,1812,
"Cite El Afrane",Tunisia,2100,"Governorate Gafsa"
Netolice,"Czech Republic","384 11","Jihoceský kraj"
"Foz do Iguaçu",Brazil,85870-320,Paraná
Chotoviny,"Czech Republic","391 37","Jihoceský kraj"
TRONDHEIM,Norway,7036,
JANNALI,Australia,2226,"New South Wales"
MEBBIN,Australia,2484,"New South Wales"
Northampton,"United States",18067,Pennsylvania
ULLATTI,Sweden,"980 42",
Qaarsut,Greenland,3964,Qaasuitsup
Braidi,Italy,98060,Messina
Qasigiannguit,Greenland,3951,Qaasuitsup
Herfølge,Denmark,4681,"Region Sjælland"
Łódź,Poland,94-005,
Dora,"Cyprus (Anglicized)",4774,Limassol
Matos,Portugal,2240-122,Santarém
"DALS LÅNGED",Sweden,"660 10",
Mojstrana,Slovenia,4281,
GRANÖ,Sweden,"920 12",
VANVES,France,92170,Île-de-France
"København K",Denmark,1295,"Region Sjælland"
Lesonice,"Czech Republic","675 44","Kraj Vysocina"
Palmitas,Uruguay,75001,Soriano
Tacoma,"United States",98402,Washington
Kampen,Netherlands,"8265 ZE",Overijssel
Pivka,Slovenia,6257,
Beaucanton,Canada,"J0Z 1H0",Quebec
Hull,Canada,"J8Y 3Y5",Quebec
SAINT-POL-SUR-MER,France,59430,Nord-Pas-de-Calais
Lanestosa,Spain,48891,Biscay
HELSINKI,Finland,00660,Uusimaa
SIX-FOURS-LES-PLAGES,France,83140,"Provence-Alpes-Côte d'Azur"
PORI,Finland,28120,Satakunta
Logatec,Slovenia,1370,
Oudshoorn,"South Africa",6625,"Western Cape"
Aroeira,Portugal,2820-383,Setúbal
St-Séverin,Switzerland,1975,
Wirschweiler,Germany,55758,Rheinland-Pfalz
Zulzeke,Belgium,9690,"East Flanders"
Rakvere,Estonia,44317,Lääne-Virumaa
DÉCINES-CHARPIEU,France,69150,Rhône-Alpes
Höfli,Switzerland,8363,
"Nico Pérez",Uruguay,30201,Lavalleja
Tiborszállás,Hungary,4353,Szabolcs-Szatmár-Bereg
Kôtelek,Hungary,5062,Jász-Nagykun-Szolnok
"ΑΓΙΟΣ ΑΘΑΝΑΣΙΟΣ","Cyprus (Greek)",4100,Λεμεσός
"St Johns Hill","New Zealand",4501,Wanganui
"Hastings Central","New Zealand",4122,Hastings
"Pieve Di Zignago",Italy,19020,"La Spezia"
Onehunga,"New Zealand",1061,Auckland
"Šternberk 1","Czech Republic","785 01","Moravskoslezský kraj"
TYRNÄVÄ,Finland,91800,"Northern Ostrobothnia"
Reykjavík,Iceland,124,
"Civitella Del Tronto",Italy,64010,Teramo
Nieuw-Dordrecht,Netherlands,"7885 GB",Drenthe
VÅLÅDALEN,Sweden,"830 12",
"KIRKBY GREEN","United Kingdom","LN4 2GQ",
Sumaré,Brazil,13171-801,"São Paulo"
Palmar,Uruguay,75004,Soriano
"Esbjerg N",Denmark,6715,"Region Syddanmark"
Króksfjarðarnes,Iceland,380,
Steenwijk,Netherlands,"8332 JB",Overijssel
"Itapecerica da Serra",Brazil,06850-325,"São Paulo"
Paphos,"Cyprus (Anglicized)",8061,Paphos
ΣΤΡΟΒΟΛΟΣ,"Cyprus (Greek)",2034,Λευκωσία
Katwijk,Netherlands,"2221 NE",Zuid-Holland
"Solana del Pino",Spain,13593,"Ciudad Real"
Castejón,Spain,31590,Navarre
ΚΑΤΑΛΙΟΝΤΑΣ,"Cyprus (Greek)",2646,Λευκωσία
Onil,Spain,03430,Alicante
Prizzi,Italy,90038,Palermo
"Frederiksberg C",Denmark,1874,"Region Sjælland"
Locadi,Italy,98020,Messina
Lageia,"Cyprus (Anglicized)",7715,Larnaca
AMBJÖRBY,Sweden,"680 52",
Kivijärve,Estonia,48412,Jõgevamaa
NOUMÉA,France,98800,Île-de-France
ΓΕΡΟΣΚΗΠΟΥ,"Cyprus (Greek)",8200,Πάφος
Argentino,Uruguay,16403,Canelones
Itapevi,Brazil,06680-095,"São Paulo"
Esbiaat,Tunisia,7114,"Governorate Kef"
"São Paulo",Brazil,08120-140,"São Paulo"
Fortaleza,Brazil,60820-460,Ceará
"Calpica Itacumbú",Uruguay,55100,Artigas
"São Vicente",Brazil,11345-360,"São Paulo"
ÖDÅKRA-VÅLA,Sweden,"260 36",
"LE PORT",France,97420,Guyane
PUDSEY,"United Kingdom","LS28 6NF",
Melandra,"Cyprus (Anglicized)",8809,Paphos
Johannesburg,"South Africa",2160,Gauteng
Pragg-Jenaz,Switzerland,7231,
OORINDI,Australia,4824,Queensland
Woolwich,"New Zealand",4120,Hastings
Lisboa,Portugal,1250-043,Lisboa
VIMPELI,Finland,62800,"Southern Ostrobothnia"
"El Bosque",Uruguay,15004,Canelones
"La Escobilla",Uruguay,90601,Canelones
Würzburg,Germany,97082,"Freistaat Bayern"
"Cite El Menzel",Tunisia,3040,"Governorate Sfax"
"El Khelaifa",Tunisia,8044,"Governorate Nabeul"
KUOPIO,Finland,70009,"Northern Savonia"
Pampigny,Switzerland,1142,
Newmarket,Canada,"L3Y 2A3",Ontario
Nicosia,"Cyprus (Anglicized)",1056,Nicosia
RHOSTRYFAN,"United Kingdom","LL54 7NE",
Bachte-Maria-Leerne,Belgium,9800,"East Flanders"
"HOOK GREEN","United Kingdom","DA13 0XQ",
"Ksar El Hedada",Tunisia,3261,"Governorate Tataouine"
Charlotte,"United States",28208,"North Carolina"
Bland,"United States",65014,Missouri
DUNKERQUE,France,59240,Nord-Pas-de-Calais
Fagurhólsmýri,Iceland,785,
Poznań,Poland,60-120,
Abenójar,Spain,13180,"Ciudad Real"
Ørbæk,Denmark,5853,"Region Syddanmark"
Toronto,Canada,"M5J 2R8",Ontario
Holtum,Netherlands,"6123 AJ",Limburg
GULLHOLMEN,Sweden,"440 84",
"Gorica pri Slivnici",Slovenia,3263,
"København V",Denmark,1502,"Region Sjælland"
Reykjavík,Iceland,131,
VALLBERGA,Sweden,"312 81",
FENGERSFORS,Sweden,"662 02",
Gondemaria,Portugal,2490-137,Santarém
JÄRVED,Sweden,"891 77",
Colenso,"South Africa",3360,KwaZulu-Natal
Hainin,Belgium,7350,Hainaut
Paulatem,Belgium,9630,"East Flanders"
Katowice,Poland,40-414,
Bonn,Germany,53121,Nordrhein-Westfalen
Csegöld,Hungary,4742,Szabolcs-Szatmár-Bereg
Baracska,Hungary,2471,Fejér
Toronto,Canada,"M5T 1T4",Ontario
Dessau,Germany,06811,Sachsen-Anhalt
Lorquí,Spain,30564,Murcia
Pukekohe,"New Zealand",2120,Franklin
"TAMALA PARK",Australia,6030,"Western Australia"
Paide,Estonia,72713,Järvamaa
"La Tour-de-Peilz",Switzerland,1814,
Paphos,"Cyprus (Anglicized)",8061,Paphos
ASHWICK,"United Kingdom","BA3 3NG",
Brunello,Italy,21020,Varese
ΛΕΥΚΩΣΙΑ,"Cyprus (Greek)",1446,Λευκωσία
Aabra,Estonia,66205,Võrumaa
GRANDE-SYNTHE,France,59760,Nord-Pas-de-Calais
Ørnhøj,Denmark,6973,"Region Midtjylland"
Tagassaare,Estonia,87629,Pärnumaa
Sava,Slovenia,1282,
WOHLSDORF,Austria,8521,Styria
"Brasy 1","Czech Republic","338 24","Plzenský kraj"
Edmonton,Canada,"T5J 2R4",Alberta
"MOUNT FAIRY",Australia,2580,"New South Wales"
Väljaküla,Estonia,94319,Saaremaa
Barnwell,"United States",29812,"South Carolina"
Mabopane,"South Africa",0207,Gauteng
"Linthicum Heights","United States",21090,Maryland
Danmarkshavn,Greenland,3984,"Northeast Greenland National Park"
"ΑΓΙΟΣ ΜΑΜΑΣ","Cyprus (Greek)",4741,Λεμεσός
MONTIGNY-LÈS-METZ,France,57158,Lorraine
"LE HAVRE",France,76610,Haute-Normandie
Flix,Spain,43750,Tarragona
"Moita do Norte",Portugal,2260-565,Santarém
Opole,Poland,45-685,
Veflinge,Denmark,5474,"Region Syddanmark"
TURRAWAN,Australia,2390,"New South Wales"
OSLO,Norway,1083,
"Brezí u Mikulova","Czech Republic","691 81","Jihomoravský kraj"
TUUSNIEMI,Finland,71200,"Northern Savonia"
Kaagu,Estonia,65214,Võrumaa
"San Andrés y Sauces",Spain,38720,"Santa Cruz de Tenerife"
Pietermaritzburg,"South Africa",3206,KwaZulu-Natal
LUCKEN,Austria,4623,"Upper Austria"
"ΜΟΝΗ ΜΑΧΑΙΡΑ","Cyprus (Greek)",2621,Λευκωσία
Bydgoszcz,Poland,85-620,
"Jaraíz de la Vera",Spain,10400,Cáceres
Basel,Switzerland,4020,
"Opatovice nad Labem","Czech Republic","533 45","Pardubický kraj"
ÖXABÄCK,Sweden,"511 52",
"København K",Denmark,1363,"Region Sjælland"
Watervliet,Belgium,9988,"East Flanders"
Pretoria,"South Africa",0044,Gauteng
Askeby,Denmark,4792,"Region Sjælland"
ΞΥΛΙΑΤΟΣ,"Cyprus (Greek)",2781,Λευκωσία
PARIS,France,75016,Île-de-France
Edmonton,Canada,"T5J 0K7",Alberta
Harc,Hungary,7172,Tolna
Ajka,Hungary,8451,Veszprém
Leevaku,Estonia,64428,Põlvamaa
Suðureyri,Iceland,430,
"Bystrice pod Hostýnem 1","Czech Republic","768 61","Zlínský kraj"
TULKARA,Australia,3478,Victoria
Sleidinge,Belgium,9940,"East Flanders"
Basel,Switzerland,4080,
Warszawa,Poland,04-856,
RATSCHENDORF,Austria,8482,Styria
Philadelphia,"United States",19107,Pennsylvania
Uummannaq,Greenland,3961,Qaasuitsup
ΛΕΥΚΩΣΙΑ,"Cyprus (Greek)",1075,Λευκωσία
"Arodes Pano","Cyprus (Anglicized)",8703,Paphos
PORI,Finland,28500,Satakunta
TRÖLSBERG,Austria,4240,"Lower Austria"
Wilderswil,Switzerland,3812,
ΚΟΙΛΑΝΙ,"Cyprus (Greek)",4776,Λεμεσός
SALO,Finland,24100,Varsinais-Suomi
Clermont,Belgium,4890,Liège
Essen,Germany,45143,Nordrhein-Westfalen
LJUNGAVERK,Sweden,"840 10",
Camrose,Canada,"T4V 1V4",Alberta
"JURBY WEST","United Kingdom","IM7 9SR",
Zwolle,Netherlands,"8015 PL",Overijssel
STELZEN,Austria,4923,"Upper Austria"
Szeged,Hungary,6724,Csongrád
Appels,Belgium,9200,"East Flanders"
Seltjarnarnes,Iceland,172,
BODØ,Norway,8070,
"ST. MICHAEL",Austria,9500,Carinthia
Paphos,"Cyprus (Anglicized)",8025,Paphos
HØNEFOSS,Norway,3517,
Cardal,Uruguay,94007,Florida
Luže,"Czech Republic","538 54","Pardubický kraj"
Herencia,Spain,13640,"Ciudad Real"
Ruhnu,Estonia,93091,Saaremaa
Campo,Portugal,4650-706,Porto
Ljubljana,Slovenia,1000,
POOWONG,Australia,3988,Victoria
Torrevieja,Spain,03180,Alicante
BIBERBACH,Austria,3331,"Lower Austria"
Felnémet,Hungary,3304,
Tudelilla,Spain,26512,"La Rioja"
Maraenui,"New Zealand",4110,Napier
"ΑΓΙΟΣ ΠΑΥΛΟΣ","Cyprus (Greek)",4562,Λεμεσός
DONAWITZ,Austria,8700,Styria
Paterson,"South Africa",6130,"Eastern Cape"
PARIS,France,75002,Île-de-France
"Torres Vedras",Portugal,2560-317,Lisboa
Liège,Belgium,4000,Liège
LAHTI,Finland,15340,"Päijänne Tavastia"
"Villanueva de Viver",Spain,12428,Castellón
SARTROUVILLE,France,78500,Île-de-France
Wierden,Netherlands,"7642 AA",Overijssel
Edingen,Belgium,7850,Hainaut
Residensia,"South Africa",1984,Gauteng
Bryanston,"South Africa",2072,Gauteng
ROVANIEMI,Finland,96190,Lapland
Weisslingen,Switzerland,8484,
Natal,Brazil,59078-420,"Rio Grande do Norte"
"ΑΓΙΟΣ ∆ΟΜΕΤΙΟΣ","Cyprus (Greek)",2360,Λευκωσία
Cáslav,"Czech Republic","286 01","Stredoceský kraj"
"TAILEM BEND",Australia,5260,"South Australia"
Marfell,"New Zealand",4310,"New Plymouth"
VIGO,"United Kingdom","WS9 4AH",
"HARROW ON THE HILL","United Kingdom","HA1 3PN",
Greenville,"United States",29601,"South Carolina"
"Cazzago San Martino",Italy,25046,Brescia
Arrieta,Spain,48114,Biscay
Robertville,Belgium,4950,Liège
"ΑΓΙΟΣ ΑΜΒΡΟΣΙΟΣ","Cyprus (Greek)",9560,Κερύvεια
Malšice,"Czech Republic","391 75","Jihoceský kraj"
HÄMEENLINNA,Finland,13220,"Tavastia Proper"
HIGHBURTON,"United Kingdom","HD8 0JN",
HANDELSPARK,Austria,4707,"Upper Austria"
Čemšenik,Slovenia,1413,
Bíldudalur,Iceland,465,
Brovst,Denmark,9460,"Region Nordjylland"
ARENDAL,Norway,4836,
WOLVESNEWTON,"United Kingdom","NP6 3DL",
Rivera,Uruguay,40000,Rivera
COMPIÈGNE,France,60200,Picardie
Aceguá,Uruguay,37001,"Cerro Largo"
ATHIS-MONS,France,91200,Île-de-France
ΣΤΡΟΒΟΛΟΣ,"Cyprus (Greek)",2001,Λευκωσία
Montroeul-au-Bois,Belgium,7911,Hainaut
MONTPELLIER,France,34090,Languedoc-Roussillon
"DORRE ISLAND",Australia,6701,"Western Australia"
Apeldoorn,Netherlands,"7314 CD",Gelderland
ΑΡΑ∆ΙΠΠΟΥ,"Cyprus (Greek)",7102,Λάρνακα
HOPTON,"United Kingdom","ST18 8YR",
"København V",Denmark,1788,"Region Sjælland"
Hluvukani,"South Africa",1362,Limpopo
Senovo,Slovenia,8281,
Kingston,"New Zealand",6021,Wellington
Narsarsuaq,Greenland,3923,Kujalleq
FRESNES,France,94260,Île-de-France
Hinniala,Estonia,65206,Võrumaa
PITSEA,"United Kingdom","SS13 7BT",
Otorohanga,"New Zealand",3900,Otorohanga
Robleda,Spain,37521,Salamanca
"Santa Lucía del Este",Uruguay,16306,Canelones
HARLAXTON,"United Kingdom","NG32 9NX",
Suure-Rootsi,Estonia,94129,Saaremaa
"Empalme Olmos",Uruguay,91002,Canelones
ΣΤΡΟΒΟΛΟΣ,"Cyprus (Greek)",2014,Λευκωσία
KRAXENBERG,Austria,4932,"Upper Austria"
ΚΑΝΛΙ,"Cyprus (Greek)",2677,Λευκωσία
Maggiora,Italy,28014,Novara
STEINKJER,Norway,7716,
"LE CREUSOT",France,71200,Bourgogne
Itegem,Belgium,2222,Antwerp
SVANESUND,Sweden,"440 92",
"Ceský Krumlov 1","Czech Republic","381 01","Jihoceský kraj"
Wadena,"United States",56482,Minnesota
PORI,Finland,28760,Satakunta
"ASTON ON CLUN","United Kingdom","SY7 7FN",
Kerhonkson,"United States",12446,"New York"
"DARGAL ROAD",Australia,4455,Queensland
"Santa Luzia",Brazil,33113-158,"Minas Gerais"
"Kinmont Park","New Zealand",9024,Dunedin
Coimbra,Portugal,3025-012,Coimbra
PARIS,France,75012,Île-de-France
NEUSTIFT,Austria,8313,Styria
Bocholt,Belgium,3950,Limburg
Pelsi,Estonia,65327,Võrumaa
"Moravský Krumlov","Czech Republic","672 01","Jihomoravský kraj"
Cave,Italy,00033,Roma
Curtina,Uruguay,45002,Tacuarembó
Juncal,Portugal,2480-379,Leiria
Antwerpen,Belgium,2050,Antwerp
Súðavík,Iceland,420,
Loncin,Belgium,4431,Liège
Amstelveen,Netherlands,"1188 JR",Noord-Holland
DONSÖ,Sweden,"430 82",
"ΑΓΙΟΣ ΣΩΖΟΜΕΝΟΣ","Cyprus (Greek)",2562,Λευκωσία
"San Javier",Uruguay,65001,Paysandú
Kraków,Poland,30-612,
Velden,Germany,84146,"Freistaat Bayern"
FÄRNÄS,Sweden,"792 03",
OSLO,Norway,0566,
DRAYCOTT,"United Kingdom","BS27 0XS",
COBRAM,Australia,3644,Victoria
ECHSENBACH,Austria,3900,"Lower Austria"
Calgary,Canada,"T2P 1M6",Alberta
Collebeato,Italy,25060,Brescia
"O Covelo",Spain,36872,Pontevedra
"El Yousri",Tunisia,9000,"Governorate Beja"
Loeches,Spain,28890,Madrid
"Macedo de Cavaleiros",Portugal,5340-329,Bragança
Roncrio,Italy,40136,Bologna
HAUGESUND,Norway,5535,
ROUEN,France,76000,Haute-Normandie
ΛΕΥΚΩΣΙΑ,"Cyprus (Greek)",1465,Λευκωσία
"København K",Denmark,1411,"Region Sjælland"
"La Sierpe",Spain,37762,Salamanca
Hespeler,Canada,"N3C 1H3",Ontario
KIRCHHAM,Austria,4891,"Upper Austria"
Forbury,"New Zealand",9012,Dunedin
Cerhenice,"Czech Republic","281 02","Stredoceský kraj"
LEEBOTTEN,"United Kingdom","ZE2 6DE",
"DIETMANNSDORF IM SULMTAL",Austria,8543,Styria
Goor,Netherlands,"7471 SB",Overijssel
PIRKA,Austria,8151,Styria
CRANNACH,"United Kingdom","AB55 3XF",
Rakaia,"New Zealand",7710,Ashburton
Prušánky,"Czech Republic","696 21","Jihomoravský kraj"
Bôle,Switzerland,2014,
Flatey,Iceland,345,
"Port Credit",Canada,"L5G 1K2",Ontario
Antoing,Belgium,7640,Hainaut
Figueres,Spain,17600,Girona
"West Peabody","United States",01960,Massachusetts
Kapla,Slovenia,2362,
"København K",Denmark,1263,"Region Sjælland"
Strovolos,"Cyprus (Anglicized)",2001,Nicosia
"Nørre Aaby",Denmark,5580,"Region Syddanmark"
Maarheeze,Netherlands,"6026 VX",Noord-Brabant
LØRENSKOG,Norway,1473,
Ezkio-Itsaso,Spain,20709,Guipúzcoa
Lappersdorf,Germany,93135,"Freistaat Bayern"
ILSBO,Sweden,"820 71",
Moerkapelle,Netherlands,"2751 XT",Zuid-Holland
VILLENEUVE-SUR-LOT,France,47300,Aquitaine
Umzimkulu,"South Africa",3304,"Eastern Cape"
Toledo,Uruguay,91100,Canelones
"La Atalaya",Spain,37591,Salamanca
Bánszállás,Hungary,3604,
"Porto Alegre",Brazil,90550-030,"Rio Grande do Sul"
Jastrzębie-Zdrój,Poland,44-336,
Taszár,Hungary,7261,Somogy
Hawkesbury,Canada,"K6A 1E8",Ontario
Rakvere,Estonia,44312,Lääne-Virumaa
Auerberg,Germany,95703,"Freistaat Bayern"
Hluk,"Czech Republic","687 25","Zlínský kraj"
"Valparaíso de Goiás",Brazil,72874-144,Goiás
Nanortalik,Greenland,3922,Kujalleq
Tallinn,Estonia,12902,Harjumaa
Zújar,Spain,18811,Granada
Louisville,"United States",40223,Kentucky
Padise,Estonia,76001,Harjumaa
"Salvaterra de Magos",Portugal,2120-111,Santarém
Touibia,Tunisia,7024,"Governorate Bizerte"
ΑΛΑΣΣΑ,"Cyprus (Greek)",4712,Λεμεσός
Rickenbach,Switzerland,4613,
"ΑΚΟΥΡ∆ΑΛΕΙΑ ΠΑΝΩ","Cyprus (Greek)",8722,Πάφος
BERGSJÖ,Sweden,"820 70",
ΑΥΛΩΝΑ,"Cyprus (Greek)",2673,Λευκωσία
Martorell,Spain,08760,Barcelona
"Saint Louis","United States",63101,Missouri
"Casa Branca",Portugal,7470-142,Portalegre
Bovelingen,Belgium,3870,Limburg
DÖRFL,Austria,3371,"Lower Austria"
OBERRIED,Austria,6444,Tyrol
"ΑΓΙΟΣ ΜΑΜΑΣ","Cyprus (Greek)",4741,Λεμεσός
Vendlincourt,Switzerland,2943,
Nuuk,Greenland,3900,Sermersooq
"Suchdol nad Lužnicí","Czech Republic","378 06","Jihoceský kraj"
BUTTABA,Australia,2283,"New South Wales"
"Les Agettes",Switzerland,1992,
Waterloo,"New Zealand",5011,"Lower Hutt"
Fortaleza,Brazil,60831-465,Ceará
Šoštanj,Slovenia,3325,
Joinville,Brazil,89225-881,"Santa Catarina"
MALUNGSFORS,Sweden,"780 60",
PENICUIK,"United Kingdom","EH26 4XP",
Carvalhal,Portugal,5370-053,Bragança
"Zrig El Ghandri",Tunisia,6036,"Governorate Gabes"
Swellendam,"South Africa",6743,"Western Cape"
CHARLEVILLE-MÉZIÈRES,France,08000,Champagne-Ardenne
STANSTEAD,"United Kingdom","CO10 3YT",
Maribor,Slovenia,2508,
München,Germany,80063,"Freistaat Bayern"
Manaus,Brazil,69086-668,Amazonas
"Moravská Trebová 1","Czech Republic","571 01","Pardubický kraj"
Sadali,Italy,08030,Nuoro
"Brno 16","Czech Republic","616 00","Jihomoravský kraj"
Mezzago,Italy,20050,Milano
"Segura de la Sierra",Spain,23379,Jaén
ÄLGARÅS,Sweden,"545 36",
FINSTADJORDET,Norway,1475,
CHAMPIGNY-SUR-MARNE,France,94500,Île-de-France
Chocerady,"Czech Republic","257 24","Stredoceský kraj"
BLACKHEATH,Australia,3401,Victoria
Laho,Estonia,64212,Põlvamaa
COLIGNAN,Australia,3494,Victoria
Þingeyri,Iceland,470,
Slatinany,"Czech Republic","538 21","Pardubický kraj"
München,Germany,81612,"Freistaat Bayern"
Marbaix,Belgium,6120,Luxembourg
"Raumati South","New Zealand",5032,Paraparaumu
Luterbach,Switzerland,4542,
Neerglabbeek,Belgium,3670,Limburg
"Sint Maarten",Netherlands,"1744 GB",Noord-Holland
"Gualeb Errakham",Tunisia,3223,"Governorate Tataouine"
"BOVINGTON CAMP","United Kingdom","BH20 9TX",
Hillerød,Denmark,3400,"Region Sjælland"
Portimão,Portugal,8500-293,Faro
Varendonk,Belgium,2431,Antwerp
Herce,Spain,26584,"La Rioja"
Chorzów,Poland,41-500,
"El Msadga",Tunisia,3030,"Governorate Sfax"
"KRISTIANSUND N",Norway,6514,
ΠΑΦΟΣ,"Cyprus (Greek)",8016,Πάφος
Hairini,"New Zealand",3112,Tauranga
Naklo,Slovenia,4202,
ΑΘΙΕΝΟΥ,"Cyprus (Greek)",7600,Λάρνακα
Tamel,Portugal,4750-700,Braga
Pincehely,Hungary,7084,Tolna
"BRODRIBB RIVER",Australia,3888,Victoria
Spy,Belgium,5190,Namur
"BALD RIDGE",Australia,2795,"New South Wales"
YALLAH,Australia,2530,"New South Wales"
Wrocław,Poland,54-317,
"Frederiksberg C",Denmark,1856,"Region Sjælland"
"El Houilat",Tunisia,7160,"Governorate Kef"
Nagykinizs,Hungary,3844,Borsod-Abaúj-Zemplén
"Camp Grove","United States",61424,Illinois
Prarreyer,Switzerland,1947,
Rivoli,Italy,10098,Torino
"København K",Denmark,1147,"Region Sjælland"
"Ústí nad Orlicí 4","Czech Republic","562 04","Pardubický kraj"
Qeqertarsuaq,Greenland,3953,Qaasuitsup
Rotterdam,Netherlands,"3025 HB",Zuid-Holland
Fertilia,Italy,07040,Sassari
CHARENTON-LE-PONT,France,94220,Île-de-France
"Quadra Island",Canada,"V0P 1N0","British Columbia"
"Freiburg Munzingen",Germany,79112,Baden-Württemberg
Neu-Ulm,Germany,89217,"Freistaat Bayern"
Todtmoos,Germany,79682,Baden-Württemberg
ARDLUSSA,"United Kingdom","PA60 5EW",
CORIO,Australia,3214,Victoria
"Kamenice nad Lipou","Czech Republic","394 70","Kraj Vysocina"
Broomfield,"New Zealand",8042,Christchurch
"Longone Sabino",Italy,02020,Rieti
Radom,Poland,26-617,
"Mechanics Bay","New Zealand",1010,Auckland
Manning,Canada,"T0H 2M0",Alberta
NAYLAND,"United Kingdom","CO6 3YL",
Piracicaba,Brazil,13424-300,"São Paulo"
BICHL,Austria,8932,Styria
"Paraje San Juan",Uruguay,90601,Canelones
ΜΗΛΙΑ,"Cyprus (Greek)",5631,Αμμόχωστος
ΖΑΧΑΡΙΑ,"Cyprus (Greek)",8806,Πάφος
"Souto da Casa",Portugal,6230-723,"Castelo Branco"
"Düsseldorf Mörsenbroich",Germany,40237,Nordrhein-Westfalen
HOLSBYBRUNN,Sweden,"570 15",
Amsterdam,Netherlands,"1069 WK",Noord-Holland
Nods,Switzerland,2518,
Bamberg,Germany,96020,"Freistaat Bayern"
"Lanzo Di Martina Franca",Italy,74010,Taranto
PÖCKAU,Austria,9601,Carinthia
Parau,"New Zealand",0604,Waitakere
"Cite Mongi Slim",Tunisia,2046,"Governorate Tunis"
Dickihof,Switzerland,8252,
Vestmannaeyjar,Iceland,902,
"ROHR IM GEBIRGE",Austria,2663,"Lower Austria"
Dubuisson,Canada,"J9P 4N8",Quebec
JÄMSHÖG,Sweden,"293 96",
Erbendorf,Germany,92677,"Freistaat Bayern"
Ankaran,Slovenia,6280,
"Cite Cnel",Tunisia,8040,"Governorate Nabeul"
Hellerup,Denmark,2900,"Region Sjælland"
Breda,Netherlands,"4813 PB",Noord-Brabant
Amsterdam-Zuidoost,Netherlands,"1106 JB",Noord-Holland
Trebnje,Slovenia,8210,
THIONVILLE,France,57100,Lorraine
Zuidlaren,Netherlands,"9472 VE",Drenthe
NIEDERNDORF,Austria,4730,"Upper Austria"
"Formentera del Segura",Spain,03179,Alicante
Wainoni,"New Zealand",8061,Christchurch
Vancouver,Canada,"V6B 1E1","British Columbia"
REISJÄRVI,Finland,85900,"Northern Ostrobothnia"
DZAOUDZI,France,97610,Mayotte
Þingeyri,Iceland,470,
Mmabatho,"South Africa",2777,"North West"
"ΚΑΛΟ ΧΩΡΙΟ ΛΑΡΝΑΚΑΣ","Cyprus (Greek)",7643,Λάρνακα
BELVOIR,"United Kingdom","NG32 8JE",
Ljubljana,Slovenia,1542,
Ljubljana,Slovenia,1523,
"Vila Velha",Brazil,29125-850,"Espírito Santo"
ΛΙΜΝΙΤΗΣ,"Cyprus (Greek)",2956,Λευκωσία
"Cabo Frio",Brazil,28912-160,"Rio de Janeiro"
"KRISTIANSAND S",Norway,4637,
"Caldas de Reis",Spain,36650,Pontevedra
Hormilleja,Spain,26223,"La Rioja"
"Bonita Springs","United States",33923,Florida
Rothenbrunnen,Switzerland,7405,
Victoria,Canada,"V8W IE9","British Columbia"
Marrero,"United States",70072,Louisiana
Vryheid,"South Africa",3120,KwaZulu-Natal
Ljubljana,Slovenia,1500,
Oshawa,Canada,"S4P 3Y2",Ontario
Cullera,Spain,46400,Valencia
Goiânia,Brazil,74093-340,Goiás
Cariñena,Spain,50400,Zaragoza
Waynesboro,"United States",39367,Mississippi
STEINKJER,Norway,7716,
Borculo,Netherlands,"7271 ED",Gelderland
"Bir Taieb",Tunisia,5043,"Governorate Monastir"
Cubatão,Brazil,11538-200,"São Paulo"
Rääsa,Estonia,42318,Ida-Virumaa
Kampen,Netherlands,"8261 LA",Overijssel
MAIL,Austria,9300,Carinthia
Kaiwharawhara,"New Zealand",6035,Wellington
"Aguas Corrientes",Uruguay,90701,Canelones
Zürich,Switzerland,8065,
HEFENSCHER,Austria,5524,Salzburg
Carroll,"United States",51401,Iowa
"El Gammarti",Tunisia,9080,"Governorate Beja"
Astromil,Portugal,4585-802,Porto
Roccabernarda,Italy,88835,Crotone
VÉLIZY-VILLACOUBLAY,France,78140,Île-de-France
Virum,Denmark,2830,"Region Sjælland"
"San Filippo",Italy,87022,Cosenza
"Santa Maria",Brazil,97020-330,"Rio Grande do Sul"
Bakkafjörður,Iceland,685,
Walkerton,Canada,"N0G 2V0",Ontario
Liivaküla,Estonia,46218,Lääne-Virumaa
Renfrew,Canada,"K7V 1T5",Ontario
"STOKE ST GREGORY","United Kingdom","TA3 8UZ",
Warszawa,Poland,04-444,
HASLUM,Norway,1344,
"Dolní Loucky","Czech Republic","594 55","Jihomoravský kraj"
Mezôpeterd,Hungary,4118,Hajdú-Bihar
STACHERLSIEDLUNG,Austria,4222,"Lower Austria"
Blankenberge,Belgium,8370,"West Flanders"
Ôrhalom,Hungary,2671,Nógrád
Dunedin,"United States",34698,Florida
"Velké Mezirící","Czech Republic","594 01","Kraj Vysocina"
Mirandela,Portugal,5370-542,Bragança
Kolovec,"Czech Republic","345 43","Plzenský kraj"
Vrysoules,"Cyprus (Anglicized)",5522,Famagusta
"Begunje pri Cerknici",Slovenia,1382,
Rønnede,Denmark,4683,"Region Sjælland"
"Kolossi (Synoikismos)","Cyprus (Anglicized)",4636,Limassol
Progreso,Uruguay,90300,Canelones
Boxtel,Netherlands,"5281 SK",Noord-Brabant
MÂCON,France,71000,Bourgogne
Subiaco,Italy,00028,Roma
Teresztenye,Hungary,3757,Borsod-Abaúj-Zemplén
Sanida,"Cyprus (Anglicized)",4510,Limassol
KROKELVDALEN,Norway,9022,
"Aguas Dulces",Uruguay,27202,Rocha
KOKKOLA,Finland,67300,"Central Ostrobothnia"
Fontenoille,Belgium,6820,Hainaut
Hernád,Hungary,2376,Pest
"Louny 1","Czech Republic","440 01","Ústecký kraj"
"New York","United States",10040,"New York"
"Mala Nedelja",Slovenia,9243,
AICH,Austria,4865,"Upper Austria"
Maisières,Belgium,7020,Hainaut
KOTKA,Finland,48200,Kymenlaakso
"Cerro Chato",Uruguay,30204,Paysandú
Soito,Portugal,6320-671,Guarda
MOULINS,France,03000,Auvergne
MADJESTON,"United Kingdom","SP8 8EE",
Narsaq,Greenland,3921,Kujalleq
"Cite El Kadim",Tunisia,6170,"Governorate Siliana"
GULMARRAD,Australia,2463,"New South Wales"
Piiri,Estonia,62604,Tartumaa
Keri,Estonia,72505,Järvamaa
"Moravský Krumlov","Czech Republic","672 01","Jihomoravský kraj"
RICHLANDS,Australia,2580,"New South Wales"
"Bílovice u Uherského Hradište","Czech Republic","687 12","Zlínský kraj"
Gasselternijveenschemond,Netherlands,"9515 PC",Drenthe
"La Tuna",Uruguay,16304,Canelones
Annesbrook,"New Zealand",7011,Nelson
Uummannaq,Greenland,3961,Qaasuitsup
Sagno,Switzerland,6839,
Trojane,Slovenia,1222,
Cáñar,Spain,18418,Granada
Tsakistra,"Cyprus (Anglicized)",2869,Nicosia
"A Estrada",Spain,36680,Pontevedra
"Vale Covo",Portugal,2540-736,Leiria
Kópasker,Iceland,671,
ΛΕΜΕΣΟΣ,"Cyprus (Greek)",3052,Λεμεσός
Ittoqqortoormiit,Greenland,3980,Sermersooq
Tirohanga,"New Zealand",5010,"Lower Hutt"
Alsógöd,Hungary,2131,Pest
TAMPERE,Finland,33420,Pirkanmaa
Gräfelfing,Germany,82166,"Freistaat Bayern"
Selja,Estonia,92176,Hiiumaa
PORI,Finland,28880,Satakunta
CREMORNE,Australia,3121,Victoria
Ovar,Portugal,3880-155,Aveiro
"Fort Saskatchewan",Canada,"T8L 2H4",Alberta
Bridgeville,"United States",15017,Pennsylvania
LEVENHALL,"United Kingdom","EH21 2ZB",
Niterói,Brazil,24140-550,"Rio de Janeiro"
Tõreska,Estonia,74617,Harjumaa
Landshut,Germany,84012,"Freistaat Bayern"
"Teófilo Otoni",Brazil,39804-235,"Minas Gerais"
"El Monte","United States",91731,California
Canena,Spain,23420,Jaén
TROMSØ,Norway,9008,
LAHTI,Finland,15340,"Päijänne Tavastia"
"Fellette Di Romano D'Ezzellino",Italy,36060,Vicenza
Richmond,"South Africa",3781,KwaZulu-Natal
Stonewall,Canada,"R0C 2Z0",Manitoba
"Sušice 1","Czech Republic","342 01","Plzenský kraj"
ΛΑΚΑΤΑΜΕΙΑ,"Cyprus (Greek)",2300,Λευκωσία
Ráckeve,Hungary,2300,Pest
"København K",Denmark,1113,"Region Sjælland"
BOURGOIN-JALLIEU,France,38300,Rhône-Alpes
Ribadumia,Spain,36636,Pontevedra
"Ksar Debab",Tunisia,3242,"Governorate Tataouine"
Dallas,"United States",75240,Texas
Donnybrook,"South Africa",3241,KwaZulu-Natal
Tiborszállás,Hungary,4353,Szabolcs-Szatmár-Bereg
Zabrze,Poland,41-810,
"Lovrenc na Dravskem polju",Slovenia,2324,
"Palos Verdes","United States",90274,California
Caxias,Brazil,65609-090,Maranhão
"Saint Louis","United States",63141,Missouri
Jedovnice,"Czech Republic","679 06","Jihomoravský kraj"
BERGEN,Norway,5099,
Yerseke,Netherlands,"4401 HM",Zeeland
"Hranice 1","Czech Republic","753 01","Olomoucký kraj"
MAWSON,Australia,2607,"Australian Capital Territory"
Metsanurga,Estonia,45426,Lääne-Virumaa
Herning,Denmark,7401,"Region Midtjylland"
Lisboa,Portugal,1600-409,Lisboa
GROSSKUFHAUS,Austria,4812,"Upper Austria"
Žetale,Slovenia,2287,
Nicosia,"Cyprus (Anglicized)",1700,Nicosia
"Frederiksberg C",Denmark,1922,"Region Sjælland"
Nuussuaq,Greenland,3905,Qaasuitsup
Morud,Denmark,5462,"Region Syddanmark"
Thisted,Denmark,7700,"Region Nordjylland"
Onekawa,"New Zealand",4110,Napier
II,Finland,91100,"Northern Ostrobothnia"
HELSINKI,Finland,00610,Uusimaa
"Louny 1","Czech Republic","440 01","Ústecký kraj"
Mecsekjánosi,Hungary,7305,
"Monte Coral",Uruguay,94012,Florida
Kópavogur,Iceland,202,
Frasco,Switzerland,6636,
Essetoute,Tunisia,5140,"Governorate Mahdia"
Bertingen,Germany,39517,Sachsen-Anhalt
Reykjavík,Iceland,111,
Szarvaskend,Hungary,9913,Vas
COSSINGTON,"United Kingdom","LE7 9BH",
"Cite Maison Populaire",Tunisia,2210,"Governorate Tozeur"
Marikana,"South Africa",0317,"North West"
TAMBORITHA,Australia,3858,Victoria
Nurme,Estonia,94729,Saaremaa
Durban,"South Africa",4000,KwaZulu-Natal
Fieschertal,Switzerland,3984,
"SANKT LEONHARD",Austria,6751,Vorarlberg
Finegand,"New Zealand",9230,Clutha
Freloux,Belgium,4347,Liège
Nádasladány,Hungary,8145,
ΠΛΑΤΑΝΙΣΤΑΣΑ,"Cyprus (Greek)",2755,Λευκωσία
"Cite Essalem",Tunisia,6052,"Governorate Gabes"
"Mestec Králové","Czech Republic","289 03","Stredoceský kraj"
"Passo Fundo",Brazil,99060-410,"Rio Grande do Sul"
"NORTH LITTLETON","United Kingdom","WR11 6LU",
BUDDINA,Australia,4575,Queensland
"Ste Therese",Canada,"J7C 2C7",Quebec
Hortobágy,Hungary,4071,Hajdú-Bihar
"MAIN ARM",Australia,2482,"New South Wales"
Radlin,Poland,44-310,
"Novo mesto",Slovenia,8001,
NAAST,"United Kingdom","IV22 4SL",
Nördlingen,Germany,86712,"Freistaat Bayern"
GENNEVILLIERS,France,92230,Île-de-France
NEUSTIFTGRABEN,Austria,4463,"Upper Austria"
"Sant Vicenç dels Horts",Spain,08571,Barcelona
BAR-LE-DUC,France,55000,Lorraine
"Caledon East",Canada,"L0N 1E0",Ontario
"BLACKWOOD FOREST",Australia,3992,Victoria
SJÖTORP,Sweden,"540 66",
Veskisoo,Estonia,87632,Pärnumaa
CAEN,France,14000,Basse-Normandie
LUBEREGG,Austria,3644,"Lower Austria"
"El Machrouha",Tunisia,8040,"Governorate Nabeul"
Opfershofen,Switzerland,8584,
FÄRNÄS,Sweden,"792 03",
NAANTALI,Finland,21100,Varsinais-Suomi
